STARLINK-33556          
1 62109U 24220X   26068.42891387  .00041375  00000+0  15049-2 0  9992
2 62109  43.0048 206.8151 0001615 294.5521  65.5162 15.27575525 73170
TROLL                   
1 62658U 25009BB  26068.22522958  .00013174  00000+0  48220-3 0  9994
2 62658  97.3932 150.7169 0001816  59.1850 300.9568 15.28164315118170
